UWE-3                   
1 39446U 13066AG  26068.86347791  .00006533  00000+0  57142-3 0  9997
2 39446  97.8589  24.3957 0048462 291.5404  68.0655 14.96183146662729
STARLINK-30366          
1 57749U 23131T   26068.31872542  .00009804  00000+0  73504-3 0  9998
2 57749  42.9994 173.3496 0001649 272.4475  87.6179 15.02782844139872
